{
  "norad_id": 68412,
  "name": "XINZHENGCHENG-01",
  "history": [
    {
      "epoch": "2026-03-31T20:39:16.914816Z",
      "apogee_km": 617.5992052438014,
      "perigee_km": 335.0718311673063,
      "latitude_deg": 1.3190320616378032e-05,
      "longitude_deg": 137.9193964054785,
      "height_km": 592.964836137835,
      "semi_major_axis_km": 6854.472518205554,
      "eccentricity": 0.02060898,
      "inclination_deg": 84.9606,
      "raan_deg": 276.9718,
      "arg_perigee_deg": 144.2419,
      "mean_anomaly_deg": 217.2835,
      "mean_motion_rev_day": 15.2982482
    }
  ]
}